STARLINK-37447          
1 68810U 26089J   26119.83335647 -.02206623  13267-2 -64520-2 0  9999
2 68810  97.2846 325.1757 0001648  94.6730 132.7881 15.92949325  2224
STARLINK-37442          
1 68811U 26089K   26119.83335647 -.02204961  13274-2 -63881-2 0  9990
2 68811  97.2847 325.1766 0001638  90.3612 139.3782 15.93126369  2282
STARLINK-37431          
1 68812U 26089L   26119.83335647 -.02163499  12823-2 -62175-2 0  9995
2 68812  97.2844 325.1776 0001568  97.0008 135.1140 15.93278066  2224
STARLINK-37426          
1 68813U 26089M   26119.83335647 -.02151134  12707-2 -61276-2 0  9991
2 68813  97.2844 325.1786 0001585  94.0146 140.2984 15.93446178  2229
STARLINK-37459          
1 68814U 26089N   26119.83335647 -.02145926  12671-2 -60590-2 0  9992
2 68814  97.2840 325.1795 0001550  97.0320 139.5882 15.93614982  2223
STARLINK-37425          
1 68815U 26089P   26119.83335647 -.02139556  12645-2 -59370-2 0  9990
2 68815  97.2838 325.1814 0001634  88.9252 152.2975 15.93945652  2225
STARLINK-37315          
1 68816U 26089Q   26119.83335647 -.02138790  12614-2 -59862-2 0  9992
2 68816  97.2839 325.1803 0001581  92.0730 146.7397 15.93781607  2227
STARLINK-37444          
1 68817U 26089R   26119.83335647 -.02129324  12552-2 -58595-2 0  9999
2 68817  97.2834 325.1820 0001549  97.5400 146.1144 15.94103814  2289
STARLINK-37450          
1 68818U 26089S   26119.83335647 -.02148863  12797-2 -58588-2 0  9992
2 68818  97.2835 325.1830 0001720  91.3365 154.4044 15.94280930  2225
STARLINK-37409          
1 68819U 26089T   26119.83335647 -.02130898  12615-2 -57632-2 0  9990
2 68819  97.2833 325.1840 0001595  96.1117 152.0214 15.94432386  2220
STARLINK-37470          
1 68820U 26089U   26119.83335647 -.02090226  12223-2 -55146-2 0  9995
2 68820  97.2833 325.1866 0001469  98.3412 156.1180 15.94897711  2226
STARLINK-37421          
1 68821U 26089V   26119.83335647 -.02136967  12706-2 -57293-2 0  9990
2 68821  97.2835 325.1855 0001641  94.7718 155.4801 15.94598070  2226
STARLINK-37462          
1 68822U 26089W   26119.83335647 -.02107431  12394-2 -56048-2 0  9995
2 68822  97.2832 325.1859 0001526 100.9630 151.3859 15.94747850  2223
STARLINK-37410          
1 68823U 26089X   26119.83335647 -.02114524  12517-2 -55301-2 0  9995
2 68823  97.2834 325.1881 0001498  96.3249 160.4848 15.95064561  2224
STARLINK-37443          
1 68824U 26089Y   26119.83335647 -.02110776  12496-2 -54759-2 0  9993
2 68824  97.2833 325.1893 0001523  91.2115 168.0444 15.95215708  2285
STARLINK-37015          
1 68825U 26089Z   26119.83335647 -.02099512  12390-2 -54022-2 0  9994
2 68825  97.2831 325.1895 0001468  98.6305 162.7080 15.95368646  2227
