[{"OBJECT_NAME":"STARLINK-37447","OBJECT_ID":"2026-089J","EPOCH":"2026-04-29T20:00:01.999008","MEAN_MOTION":15.92949325,"ECCENTRICITY":0.0001648,"INCLINATION":97.2846,"RA_OF_ASC_NODE":325.1757,"ARG_OF_PERICENTER":94.673,"MEAN_ANOMALY":132.7881,"EPHEMERIS_TYPE":0,"CLASSIFICATION_TYPE":"U","NORAD_CAT_ID":68810,"ELEMENT_SET_NO":999,"REV_AT_EPOCH":222,"BSTAR":-0.006452,"MEAN_MOTION_DOT":-0.02206623,"MEAN_MOTION_DDOT":0.0013267},{"OBJECT_NAME":"STARLINK-37442","OBJECT_ID":"2026-089K","EPOCH":"2026-04-29T20:00:01.999008","MEAN_MOTION":15.93126369,"ECCENTRICITY":0.0001638,"INCLINATION":97.2847,"RA_OF_ASC_NODE":325.1766,"ARG_OF_PERICENTER":90.3612,"MEAN_ANOMALY":139.3782,"EPHEMERIS_TYPE":0,"CLASSIFICATION_TYPE":"U","NORAD_CAT_ID":68811,"ELEMENT_SET_NO":999,"REV_AT_EPOCH":228,"BSTAR":-0.0063881,"MEAN_MOTION_DOT":-0.02204961,"MEAN_MOTION_DDOT":0.0013274},{"OBJECT_NAME":"STARLINK-37431","OBJECT_ID":"2026-089L","EPOCH":"2026-04-29T20:00:01.999008","MEAN_MOTION":15.93278066,"ECCENTRICITY":0.0001568,"INCLINATION":97.2844,"RA_OF_ASC_NODE":325.1776,"ARG_OF_PERICENTER":97.0008,"MEAN_ANOMALY":135.114,"EPHEMERIS_TYPE":0,"CLASSIFICATION_TYPE":"U","NORAD_CAT_ID":68812,"ELEMENT_SET_NO":999,"REV_AT_EPOCH":222,"BSTAR":-0.0062175,"MEAN_MOTION_DOT":-0.02163499,"MEAN_MOTION_DDOT":0.0012823},{"OBJECT_NAME":"STARLINK-37426","OBJECT_ID":"2026-089M","EPOCH":"2026-04-29T20:00:01.999008","MEAN_MOTION":15.93446178,"ECCENTRICITY":0.0001585,"INCLINATION":97.2844,"RA_OF_ASC_NODE":325.1786,"ARG_OF_PERICENTER":94.0146,"MEAN_ANOMALY":140.2984,"EPHEMERIS_TYPE":0,"CLASSIFICATION_TYPE":"U","NORAD_CAT_ID":68813,"ELEMENT_SET_NO":999,"REV_AT_EPOCH":222,"BSTAR":-0.0061276,"MEAN_MOTION_DOT":-0.02151134,"MEAN_MOTION_DDOT":0.0012707},{"OBJECT_NAME":"STARLINK-37459","OBJECT_ID":"2026-089N","EPOCH":"2026-04-29T20:00:01.999008","MEAN_MOTION":15.93614982,"ECCENTRICITY":0.000155,"INCLINATION":97.284,"RA_OF_ASC_NODE":325.1795,"ARG_OF_PERICENTER":97.032,"MEAN_ANOMALY":139.5882,"EPHEMERIS_TYPE":0,"CLASSIFICATION_TYPE":"U","NORAD_CAT_ID":68814,"ELEMENT_SET_NO":999,"REV_AT_EPOCH":222,"BSTAR":-0.006059,"MEAN_MOTION_DOT":-0.02145926,"MEAN_MOTION_DDOT":0.0012671},{"OBJECT_NAME":"STARLINK-37425","OBJECT_ID":"2026-089P","EPOCH":"2026-04-29T20:00:01.999008","MEAN_MOTION":15.93945652,"ECCENTRICITY":0.0001634,"INCLINATION":97.2838,"RA_OF_ASC_NODE":325.1814,"ARG_OF_PERICENTER":88.9252,"MEAN_ANOMALY":152.2975,"EPHEMERIS_TYPE":0,"CLASSIFICATION_TYPE":"U","NORAD_CAT_ID":68815,"ELEMENT_SET_NO":999,"REV_AT_EPOCH":222,"BSTAR":-0.005937,"MEAN_MOTION_DOT":-0.02139556,"MEAN_MOTION_DDOT":0.0012645},{"OBJECT_NAME":"STARLINK-37315","OBJECT_ID":"2026-089Q","EPOCH":"2026-04-29T20:00:01.999008","MEAN_MOTION":15.93781607,"ECCENTRICITY":0.0001581,"INCLINATION":97.2839,"RA_OF_ASC_NODE":325.1803,"ARG_OF_PERICENTER":92.073,"MEAN_ANOMALY":146.7397,"EPHEMERIS_TYPE":0,"CLASSIFICATION_TYPE":"U","NORAD_CAT_ID":68816,"ELEMENT_SET_NO":999,"REV_AT_EPOCH":222,"BSTAR":-0.0059862,"MEAN_MOTION_DOT":-0.0213879,"MEAN_MOTION_DDOT":0.0012614},{"OBJECT_NAME":"STARLINK-37444","OBJECT_ID":"2026-089R","EPOCH":"2026-04-29T20:00:01.999008","MEAN_MOTION":15.94103814,"ECCENTRICITY":0.0001549,"INCLINATION":97.2834,"RA_OF_ASC_NODE":325.182,"ARG_OF_PERICENTER":97.54,"MEAN_ANOMALY":146.1144,"EPHEMERIS_TYPE":0,"CLASSIFICATION_TYPE":"U","NORAD_CAT_ID":68817,"ELEMENT_SET_NO":999,"REV_AT_EPOCH":228,"BSTAR":-0.0058595,"MEAN_MOTION_DOT":-0.02129324,"MEAN_MOTION_DDOT":0.0012552},{"OBJECT_NAME":"STARLINK-37450","OBJECT_ID":"2026-089S","EPOCH":"2026-04-29T20:00:01.999008","MEAN_MOTION":15.9428093,"ECCENTRICITY":0.000172,"INCLINATION":97.2835,"RA_OF_ASC_NODE":325.183,"ARG_OF_PERICENTER":91.3365,"MEAN_ANOMALY":154.4044,"EPHEMERIS_TYPE":0,"CLASSIFICATION_TYPE":"U","NORAD_CAT_ID":68818,"ELEMENT_SET_NO":999,"REV_AT_EPOCH":222,"BSTAR":-0.0058588,"MEAN_MOTION_DOT":-0.02148863,"MEAN_MOTION_DDOT":0.0012797},{"OBJECT_NAME":"STARLINK-37409","OBJECT_ID":"2026-089T","EPOCH":"2026-04-29T20:00:01.999008","MEAN_MOTION":15.94432386,"ECCENTRICITY":0.0001595,"INCLINATION":97.2833,"RA_OF_ASC_NODE":325.184,"ARG_OF_PERICENTER":96.1117,"MEAN_ANOMALY":152.0214,"EPHEMERIS_TYPE":0,"CLASSIFICATION_TYPE":"U","NORAD_CAT_ID":68819,"ELEMENT_SET_NO":999,"REV_AT_EPOCH":222,"BSTAR":-0.0057632,"MEAN_MOTION_DOT":-0.02130898,"MEAN_MOTION_DDOT":0.0012615},{"OBJECT_NAME":"STARLINK-37470","OBJECT_ID":"2026-089U","EPOCH":"2026-04-29T20:00:01.999008","MEAN_MOTION":15.94897711,"ECCENTRICITY":0.0001469,"INCLINATION":97.2833,"RA_OF_ASC_NODE":325.1866,"ARG_OF_PERICENTER":98.3412,"MEAN_ANOMALY":156.118,"EPHEMERIS_TYPE":0,"CLASSIFICATION_TYPE":"U","NORAD_CAT_ID":68820,"ELEMENT_SET_NO":999,"REV_AT_EPOCH":222,"BSTAR":-0.0055146,"MEAN_MOTION_DOT":-0.02090226,"MEAN_MOTION_DDOT":0.0012223},{"OBJECT_NAME":"STARLINK-37421","OBJECT_ID":"2026-089V","EPOCH":"2026-04-29T20:00:01.999008","MEAN_MOTION":15.9459807,"ECCENTRICITY":0.0001641,"INCLINATION":97.2835,"RA_OF_ASC_NODE":325.1855,"ARG_OF_PERICENTER":94.7718,"MEAN_ANOMALY":155.4801,"EPHEMERIS_TYPE":0,"CLASSIFICATION_TYPE":"U","NORAD_CAT_ID":68821,"ELEMENT_SET_NO":999,"REV_AT_EPOCH":222,"BSTAR":-0.0057293,"MEAN_MOTION_DOT":-0.02136967,"MEAN_MOTION_DDOT":0.0012706},{"OBJECT_NAME":"STARLINK-37462","OBJECT_ID":"2026-089W","EPOCH":"2026-04-29T20:00:01.999008","MEAN_MOTION":15.9474785,"ECCENTRICITY":0.0001526,"INCLINATION":97.2832,"RA_OF_ASC_NODE":325.1859,"ARG_OF_PERICENTER":100.963,"MEAN_ANOMALY":151.3859,"EPHEMERIS_TYPE":0,"CLASSIFICATION_TYPE":"U","NORAD_CAT_ID":68822,"ELEMENT_SET_NO":999,"REV_AT_EPOCH":222,"BSTAR":-0.0056048,"MEAN_MOTION_DOT":-0.02107431,"MEAN_MOTION_DDOT":0.0012394},{"OBJECT_NAME":"STARLINK-37410","OBJECT_ID":"2026-089X","EPOCH":"2026-04-29T20:00:01.999008","MEAN_MOTION":15.95064561,"ECCENTRICITY":0.0001498,"INCLINATION":97.2834,"RA_OF_ASC_NODE":325.1881,"ARG_OF_PERICENTER":96.3249,"MEAN_ANOMALY":160.4848,"EPHEMERIS_TYPE":0,"CLASSIFICATION_TYPE":"U","NORAD_CAT_ID":68823,"ELEMENT_SET_NO":999,"REV_AT_EPOCH":222,"BSTAR":-0.0055301,"MEAN_MOTION_DOT":-0.02114524,"MEAN_MOTION_DDOT":0.0012517},{"OBJECT_NAME":"STARLINK-37443","OBJECT_ID":"2026-089Y","EPOCH":"2026-04-29T20:00:01.999008","MEAN_MOTION":15.95215708,"ECCENTRICITY":0.0001523,"INCLINATION":97.2833,"RA_OF_ASC_NODE":325.1893,"ARG_OF_PERICENTER":91.2115,"MEAN_ANOMALY":168.0444,"EPHEMERIS_TYPE":0,"CLASSIFICATION_TYPE":"U","NORAD_CAT_ID":68824,"ELEMENT_SET_NO":999,"REV_AT_EPOCH":228,"BSTAR":-0.0054759,"MEAN_MOTION_DOT":-0.02110776,"MEAN_MOTION_DDOT":0.0012496},{"OBJECT_NAME":"STARLINK-37015","OBJECT_ID":"2026-089Z","EPOCH":"2026-04-29T20:00:01.999008","MEAN_MOTION":15.95368646,"ECCENTRICITY":0.0001468,"INCLINATION":97.2831,"RA_OF_ASC_NODE":325.1895,"ARG_OF_PERICENTER":98.6305,"MEAN_ANOMALY":162.708,"EPHEMERIS_TYPE":0,"CLASSIFICATION_TYPE":"U","NORAD_CAT_ID":68825,"ELEMENT_SET_NO":999,"REV_AT_EPOCH":222,"BSTAR":-0.0054022,"MEAN_MOTION_DOT":-0.02099512,"MEAN_MOTION_DDOT":0.001239}]
